ONEWEB-0309             
1 49095U 21075W   26170.29117868  .00000001  00000+0 -30970-4 0  9994
2 49095  87.9130   5.4443 0002036 102.6171 257.5189 13.17648460233854
ONEWEB-0310             
1 49096U 21075X   26170.06529435 -.00000529  00000+0 -15046-2 0  9998
2 49096  87.8937 350.3068 0001834  92.1306 268.0032 13.12441116235436
ONEWEB-0311             
1 49097U 21075Y   26170.07012284 -.00000023  00000+0 -92400-4 0  9999
2 49097  87.9133   5.4880 0002228  81.2245 278.9139 13.17650288233876
ONEWEB-0312             
1 49098U 21075Z   26170.23718621 -.00000062  00000+0 -19305-3 0  9991
2 49098  87.9130   5.4656 0002196  90.4586 269.6797 13.17652874233879
ONEWEB-0313             
1 49099U 21075AA  26170.24210410 -.00000016  00000+0 -75144-4 0  9999
2 49099  87.9129   5.4701 0001965  86.0626 274.0730 13.17648784233869
ONEWEB-0314             
1 49100U 21075AB  26170.28443921 -.00000087  00000+0 -25777-3 0  9995
2 49100  87.9141   5.4345 0002269  90.5118 269.6274 13.17648332233844
ONEWEB-0315             
1 49101U 21075AC  26170.19067178  .00000314  00000+0  83666-3 0  9994
2 49101  87.8948 350.2458 0002042  81.7810 278.3550 13.12443078235431
ONEWEB-0316             
1 49102U 21075AD  26170.20748007 -.00000028  00000+0 -10381-3 0  9992
2 49102  87.9165 335.0538 0001911  92.1810 267.9541 13.18686661237477
ONEWEB-0317             
1 49103U 21075AE  26170.19406111  .00000218  00000+0  56934-3 0  9991
2 49103  87.8949 350.2690 0001620 114.5962 245.5335 13.12442692235456
ONEWEB-0318             
1 49104U 21075AF  26169.97648410 -.00000003  00000+0 -41563-4 0  9993
2 49104  87.9171 335.1014 0001991  86.6308 273.5052 13.18685387237401
ONEWEB-0319             
1 49105U 21075AG  26170.07180800  .00000042  00000+0  75390-4 0  9997
2 49105  87.9133   5.4929 0002152  75.4838 284.6532 13.17649080233856
ONEWEB-0323             
1 49106U 21075AH  26170.25166268  .00000390  00000+0  10483-2 0  9996
2 49106  87.8949 350.2387 0002276  81.6806 278.4581 13.12444023234829
ONEWEB-0329             
1 49107U 21075AJ  26170.08024686 -.00000018  00000+0 -78893-4 0  9995
2 49107  87.9132   5.4921 0002023  88.9308 271.2055 13.17649321233835
ONEWEB-0330             
1 49108U 21075AK  26169.04065967  .00023926  00000+0  61248-1 0  9991
2 49108  87.9135   5.7192 0002036  91.8176 268.3189 13.17848881233738
ONEWEB-0292             
1 49186U 21083A   26170.14617968 -.00000207  00000+0 -60065-3 0  9990
2 49186  87.8952 319.8480 0001958  91.8545 268.2808 13.13471752231180
ONEWEB-0303             
1 49187U 21083B   26170.20073740 -.00000031  00000+0 -11174-3 0  9994
2 49187  87.9169 335.0553 0001964  89.5064 270.6294 13.18686192230243
ONEWEB-0306             
1 49188U 21083C   26170.19061526  .00000025  00000+0  30757-4 0  9992
2 49188  87.9172 335.0454 0001786 100.4976 259.6357 13.18686833230288
ONEWEB-0307             
1 49189U 21083D   26170.14024994 -.00000296  00000+0 -84470-3 0  9998
2 49189  87.8954 319.8464 0001941  94.8663 265.2687 13.13470253231180
ONEWEB-0320             
1 49190U 21083E   26169.98321805 -.00000004  00000+0 -43044-4 0  9991
2 49190  87.9161 335.1045 0001817  94.3249 265.8091 13.18685464230211
ONEWEB-0321             
1 49191U 21083F   26170.24647947  .00000124  00000+0  27234-3 0  9994
2 49191  87.9195 274.0243 0001870 108.3137 251.8200 13.20772602237107
ONEWEB-0322             
1 49192U 21083G   26170.13600079 -.00000343  00000+0 -97544-3 0  9994
2 49192  87.8953 319.8476 0001448 104.3027 255.8263 13.13467875231179
ONEWEB-0324             
1 49193U 21083H   26170.18387189  .00000020  00000+0  18100-4 0  9996
2 49193  87.9173 335.0522 0002002  97.5744 262.5616 13.18685252230265
ONEWEB-0325             
1 49194U 21083J   26170.18724740 -.00000003  00000+0 -39924-4 0  9995
2 49194  87.9162 335.0598 0001818  91.7070 268.4270 13.18685612230271
ONEWEB-0326             
1 49195U 21083K   26169.97493373  .00000015  00000+0  45516-5 0  9992
2 49195  87.9171 335.0998 0001957  85.5748 274.5608 13.18684905230236
ONEWEB-0327             
1 49196U 21083L   26169.97465355  .00000007  00000+0 -15078-4 0  9993
2 49196  87.9164 335.1040 0001890  80.8750 279.2596 13.18684641230252
ONEWEB-0328             
1 49197U 21083M   26170.12585920 -.00000182  00000+0 -53432-3 0  9994
2 49197  87.8964 319.8224 0001957  98.7216 261.4135 13.13469892231158
ONEWEB-0331             
1 49198U 21083N   26170.19567128  .00000061  00000+0  12145-3 0  9992
2 49198  87.9171 335.0498 0002079  86.0316 274.1054 13.18686422230278
ONEWEB-0333             
1 49199U 21083P   26170.12078067 -.00000170  00000+0 -50005-3 0  9995
2 49199  87.8954 319.8498 0001821  95.3920 264.7417 13.13469458231165
ONEWEB-0334             
1 49200U 21083Q   26170.26168664  .00000020  00000+0  18077-4 0  9992
2 49200  87.9193 274.0320 0001520 129.7303 230.3964 13.21260415237065
ONEWEB-0335             
1 49201U 21083R   26170.11570346  .00000076  00000+0  17321-3 0  9992
2 49201  87.8955 319.8481 0001958  92.8696 267.2657 13.13470011231177
