OBJECT_NAME,OBJECT_ID,EPOCH,MEAN_MOTION,ECCENTRICITY,INCLINATION,RA_OF_ASC_NODE,ARG_OF_PERICENTER,MEAN_ANOMALY,EPHEMERIS_TYPE,CLASSIFICATION_TYPE,NORAD_CAT_ID,ELEMENT_SET_NO,REV_AT_EPOCH,BSTAR,MEAN_MOTION_DOT,MEAN_MOTION_DDOT
ONEWEB-0309,2021-075W,2026-06-19T06:59:17.837952,13.17648460,.00020365,87.9130,5.4443,102.6171,257.5189,0,U,49095,999,23385,-.30969921E-4,.1E-7,0
ONEWEB-0310,2021-075X,2026-06-19T01:34:01.431840,13.12441116,.00018344,87.8937,350.3068,92.1306,268.0032,0,U,49096,999,23543,-.15046496E-2,-.529E-5,0
ONEWEB-0311,2021-075Y,2026-06-19T01:40:58.613376,13.17650288,.0002228,87.9133,5.4880,81.2245,278.9139,0,U,49097,999,23387,-.92399901E-4,-.23E-6,0
ONEWEB-0312,2021-075Z,2026-06-19T05:41:32.888544,13.17652874,.00021964,87.9130,5.4656,90.4586,269.6797,0,U,49098,999,23387,-.1930497E-3,-.62E-6,0
ONEWEB-0313,2021-075AA,2026-06-19T05:48:37.794240,13.17648784,.00019652,87.9129,5.4701,86.0626,274.0730,0,U,49099,999,23386,-.7514435E-4,-.16E-6,0
ONEWEB-0314,2021-075AB,2026-06-19T06:49:35.547744,13.17648332,.00022698,87.9141,5.4345,90.5118,269.6274,0,U,49100,999,23384,-.25776861E-3,-.87E-6,0
ONEWEB-0315,2021-075AC,2026-06-19T04:34:34.041792,13.12443078,.00020428,87.8948,350.2458,81.7810,278.3550,0,U,49101,999,23543,.83666456E-3,.314E-5,0
ONEWEB-0316,2021-075AD,2026-06-19T04:58:46.278048,13.18686661,.00019114,87.9165,335.0538,92.1810,267.9541,0,U,49102,999,23747,-.10380706E-3,-.28E-6,0
ONEWEB-0317,2021-075AE,2026-06-19T04:39:26.879904,13.12442692,.00016209,87.8949,350.2690,114.5962,245.5335,0,U,49103,999,23545,.5693408E-3,.218E-5,0
ONEWEB-0318,2021-075AF,2026-06-18T23:26:08.226240,13.18685387,.00019917,87.9171,335.1014,86.6308,273.5052,0,U,49104,999,23740,-.4156342E-4,-.3E-7,0
ONEWEB-0319,2021-075AG,2026-06-19T01:43:24.211200,13.17649080,.00021527,87.9133,5.4929,75.4838,284.6532,0,U,49105,999,23385,.75390317E-4,.42E-6,0
ONEWEB-0323,2021-075AH,2026-06-19T06:02:23.655552,13.12444023,.00022764,87.8949,350.2387,81.6806,278.4581,0,U,49106,999,23482,.10482757E-2,.39E-5,0
ONEWEB-0329,2021-075AJ,2026-06-19T01:55:33.328704,13.17649321,.00020232,87.9132,5.4921,88.9308,271.2055,0,U,49107,999,23383,-.78893364E-4,-.18E-6,0
ONEWEB-0330,2021-075AK,2026-06-18T00:58:32.995488,13.17848881,.00020367,87.9135,5.7192,91.8176,268.3189,0,U,49108,999,23373,.61247942E-1,.23926E-3,0
ONEWEB-0292,2021-083A,2026-06-19T03:30:29.924352,13.13471752,.00019584,87.8952,319.8480,91.8545,268.2808,0,U,49186,999,23118,-.60064512E-3,-.207E-5,0
ONEWEB-0303,2021-083B,2026-06-19T04:49:03.711360,13.18686192,.00019641,87.9169,335.0553,89.5064,270.6294,0,U,49187,999,23024,-.11173663E-3,-.31E-6,0
ONEWEB-0306,2021-083C,2026-06-19T04:34:29.158464,13.18686833,.0001786,87.9172,335.0454,100.4976,259.6357,0,U,49188,999,23028,.30756826E-4,.25E-6,0
ONEWEB-0307,2021-083D,2026-06-19T03:21:57.594816,13.13470253,.0001941,87.8954,319.8464,94.8663,265.2687,0,U,49189,999,23118,-.84469722E-3,-.296E-5,0
ONEWEB-0320,2021-083E,2026-06-18T23:35:50.039520,13.18685464,.00018173,87.9161,335.1045,94.3249,265.8091,0,U,49190,999,23021,-.43043993E-4,-.4E-7,0
ONEWEB-0321,2021-083F,2026-06-19T05:54:55.826208,13.20772602,.00018704,87.9195,274.0243,108.3137,251.8200,0,U,49191,999,23710,.27234266E-3,.124E-5,0
ONEWEB-0322,2021-083G,2026-06-19T03:15:50.468256,13.13467875,.0001448,87.8953,319.8476,104.3027,255.8263,0,U,49192,999,23117,-.97544015E-3,-.343E-5,0
ONEWEB-0324,2021-083H,2026-06-19T04:24:46.531296,13.18685252,.00020028,87.9173,335.0522,97.5744,262.5616,0,U,49193,999,23026,.18100293E-4,.2E-6,0
ONEWEB-0325,2021-083J,2026-06-19T04:29:38.175360,13.18685612,.00018185,87.9162,335.0598,91.7070,268.4270,0,U,49194,999,23027,-.39923918E-4,-.3E-7,0
ONEWEB-0326,2021-083K,2026-06-18T23:23:54.274272,13.18684905,.00019573,87.9171,335.0998,85.5748,274.5608,0,U,49195,999,23023,.4551645E-5,.15E-6,0
ONEWEB-0327,2021-083L,2026-06-18T23:23:30.066720,13.18684641,.000189,87.9164,335.1040,80.8750,279.2596,0,U,49196,999,23025,-.15077812E-4,.7E-7,0
ONEWEB-0328,2021-083M,2026-06-19T03:01:14.234880,13.13469892,.00019573,87.8964,319.8224,98.7216,261.4135,0,U,49197,999,23115,-.53431639E-3,-.182E-5,0
ONEWEB-0331,2021-083N,2026-06-19T04:41:45.998592,13.18686422,.00020795,87.9171,335.0498,86.0316,274.1054,0,U,49198,999,23027,.12145132E-3,.61E-6,0
ONEWEB-0333,2021-083P,2026-06-19T02:53:55.449888,13.13469458,.00018214,87.8954,319.8498,95.3920,264.7417,0,U,49199,999,23116,-.50005328E-3,-.17E-5,0
ONEWEB-0334,2021-083Q,2026-06-19T06:16:49.725696,13.21260415,.00015206,87.9193,274.0320,129.7303,230.3964,0,U,49200,999,23706,.18076518E-4,.2E-6,0
ONEWEB-0335,2021-083R,2026-06-19T02:46:36.778944,13.13470011,.00019589,87.8955,319.8481,92.8696,267.2657,0,U,49201,999,23117,.17320802E-3,.76E-6,0
